0 FENGYUN 1C DEB
1 31270U 99025BNC 13282.23436581  .00002614  00000-0  69032-3 0  8317
2 31270 099.0109 061.6625 0158704 343.5167 135.9105 14.42635471345567
0 FENGYUN 1C DEB
1 31270U 99025BNC 13285.84790800  .00002940  00000-0  77444-3 0  8334
2 31270 099.0103 065.4808 0158621 332.7740 182.8946 14.42648846346094
0 FENGYUN 1C DEB
1 31270U 99025BNC 13291.25037190  .00004075  00000-0  10668-2 0  8348
2 31270 099.0117 071.1916 0158615 316.6582 161.2253 14.42684032346865
0 FENGYUN 1C DEB
1 31270U 99025BNC 13292.34288675  .00004189  00000-0  10961-2 0  8358
2 31270 099.0118 072.3463 0158548 313.4474 075.3684 14.42690657347028
0 FENGYUN 1C DEB
1 31270U 99025BNC 13293.89225669  .00004940  00000-0  12895-2 0  8367
2 31270 099.0121 073.9841 0158559 308.8205 202.3857 14.42700894347255
0 FENGYUN 1C DEB
1 31270U 99025BNC 13295.33125618  .00005474  00000-0  14272-2 0  8376
2 31270 099.0121 075.5054 0158497 304.5390 116.2040 14.42711570347450
